*******************************************************************************
Ephemeris / WWW_USER Mon Mar 24 08:46:14 2025 Pasadena, USA      / Horizons    
*******************************************************************************
Target body name: (2018 OG)                       {source: JPL#12}
Center body name: Earth (399)                     {source: DE441}
Center-site name: Mauna Kea
*******************************************************************************
Start time      : A.D. 2019-Jan-19 04:15:00.0000 UT      
Stop  time      : A.D. 2019-Jan-19 16:49:00.0000 UT      
Step-size       : 1 minutes
*******************************************************************************
Target pole/equ : undefined
Target radii    : undefined                                                    
Center geodetic : 204.5278, 19.8260847, 4.21024   {E-lon(deg),Lat(deg),Alt(km)}
Center cylindric: 204.5278, 6006.35451, 2151.0229 {E-lon(deg),Dxy(km),Dz(km)}
Center pole/equ : ITRF93                          {East-longitude positive}
Center radii    : 6378.137, 6378.137, 6356.752 km {Equator_a, b, pole_c}       
Target primary  : Sun
Vis. interferer : MOON (R_eq= 1737.400) km        {source: DE441}
Rel. light bend : Sun                             {source: DE441}
Rel. lght bnd GM: 1.3271E+11 km^3/s^2                                          
Small-body perts: Yes                             {source: SB441-N16}
Atmos refraction: NO (AIRLESS)
RA format       : HMS
Time format     : CAL 
Calendar mode   : Mixed Julian/Gregorian
RTS-only print  : NO       
EOP file        : eop.250321.p250617                                           
EOP coverage    : DATA-BASED 1962-JAN-20 TO 2025-MAR-21. PREDICTS-> 2025-JUN-16
Units conversion: 1 au= 149597870.700 km, c= 299792.458 km/s, 1 day= 86400.0 s 
Table cut-offs 1: Elevation (-90.0deg=NO ),Airmass (>38.000=NO), Daylight (YES)
Table cut-offs 2: Solar elongation (  0.0,180.0=NO ),Local Hour Angle( 0.0=NO )
Table cut-offs 3: RA/DEC angular rate (     0.0=NO )                           
*******************************************************************************
Initial IAU76/J2000 heliocentric ecliptic osculating elements (au, days, deg.):
  EPOCH=  2458389.5 ! 2018-Sep-28.00 (TDB)         Residual RMS= .17662        
   EC= .5817218672922059   QR= .9873203561553971   TP= 2458366.942240702       
   OM= 131.0345430575832   W=  220.7633135105564   IN= 9.123860581277821       
  Equivalent ICRF heliocentric cartesian coordinates (au, au/d):
   X= 9.625437195102586E-01  Y= 3.686106454146055E-01  Z=-5.877845729655690E-03
  VX=-3.555418036941177E-03 VY= 1.979451357965206E-02 VZ= 6.659913004156397E-03
Asteroid physical parameters (km, seconds, rotational period in hours):        
   GM= n.a.                RAD= n.a.               ROTPER= n.a.                
   H= 23.6                 G= .150                 B-V= n.a.                   
                           ALBEDO= n.a.            STYP= n.a.                  
*******************************************************************************
 Date__(UT)__HR:MN     R.A._________(ICRF)_________DEC
******************************************************
$$SOE
 2019-Jan-19 10:24  m  05 02 49.686854 +13 20 10.89088
 2019-Jan-19 10:25  m  05 02 49.689374 +13 20 11.36208
 2019-Jan-19 10:26  m  05 02 49.691904 +13 20 11.83325
 2019-Jan-19 10:27  m  05 02 49.694442 +13 20 12.30439
 2019-Jan-19 10:28  m  05 02 49.696988 +13 20 12.77550
 2019-Jan-19 10:29  m  05 02 49.699543 +13 20 13.24657
 2019-Jan-19 10:30  m  05 02 49.702107 +13 20 13.71762
 2019-Jan-19 10:31  m  05 02 49.704680 +13 20 14.18863
 2019-Jan-19 10:32  m  05 02 49.707261 +13 20 14.65962
 2019-Jan-19 10:33  m  05 02 49.709851 +13 20 15.13057
 2019-Jan-19 10:34  m  05 02 49.712450 +13 20 15.60150
 2019-Jan-19 10:35  m  05 02 49.715058 +13 20 16.07239
 2019-Jan-19 10:36  m  05 02 49.717675 +13 20 16.54325
 2019-Jan-19 10:37  m  05 02 49.720301 +13 20 17.01408
 2019-Jan-19 10:38  m  05 02 49.722935 +13 20 17.48489
 2019-Jan-19 10:39  m  05 02 49.725579 +13 20 17.95566
 2019-Jan-19 10:40  m  05 02 49.728232 +13 20 18.42640
 2019-Jan-19 10:41  m  05 02 49.730894 +13 20 18.89712
 2019-Jan-19 10:42  m  05 02 49.733564 +13 20 19.36780
 2019-Jan-19 10:43  m  05 02 49.736244 +13 20 19.83846
 2019-Jan-19 10:44  m  05 02 49.738934 +13 20 20.30908
 2019-Jan-19 10:45  m  05 02 49.741632 +13 20 20.77968
 2019-Jan-19 10:46  m  05 02 49.744340 +13 20 21.25025
 2019-Jan-19 10:47  m  05 02 49.747057 +13 20 21.72079
 2019-Jan-19 10:48  m  05 02 49.749783 +13 20 22.19130
 2019-Jan-19 10:49  m  05 02 49.752518 +13 20 22.66178
 2019-Jan-19 10:50  m  05 02 49.755263 +13 20 23.13223
 2019-Jan-19 10:51  m  05 02 49.758018 +13 20 23.60266
 2019-Jan-19 10:52  m  05 02 49.760781 +13 20 24.07305
 2019-Jan-19 10:53  m  05 02 49.763554 +13 20 24.54342
 2019-Jan-19 10:54  m  05 02 49.766337 +13 20 25.01376
 2019-Jan-19 10:55  m  05 02 49.769129 +13 20 25.48408
 2019-Jan-19 10:56  m  05 02 49.771931 +13 20 25.95436
 2019-Jan-19 10:57  m  05 02 49.774742 +13 20 26.42462
 2019-Jan-19 10:58  m  05 02 49.777563 +13 20 26.89485
 2019-Jan-19 10:59  m  05 02 49.780393 +13 20 27.36505
 2019-Jan-19 11:00  m  05 02 49.783233 +13 20 27.83523
 2019-Jan-19 11:01  m  05 02 49.786083 +13 20 28.30537
 2019-Jan-19 11:02  m  05 02 49.788942 +13 20 28.77550
 2019-Jan-19 11:03  m  05 02 49.791811 +13 20 29.24559
 2019-Jan-19 11:04  m  05 02 49.794690 +13 20 29.71566
 2019-Jan-19 11:05  m  05 02 49.797579 +13 20 30.18570
 2019-Jan-19 11:06  m  05 02 49.800477 +13 20 30.65571
 2019-Jan-19 11:07  m  05 02 49.803386 +13 20 31.12570
 2019-Jan-19 11:08  m  05 02 49.806304 +13 20 31.59566
 2019-Jan-19 11:09  m  05 02 49.809232 +13 20 32.06560
 2019-Jan-19 11:10  m  05 02 49.812170 +13 20 32.53551
 2019-Jan-19 11:11  m  05 02 49.815118 +13 20 33.00539
 2019-Jan-19 11:12  m  05 02 49.818077 +13 20 33.47525
 2019-Jan-19 11:13  m  05 02 49.821045 +13 20 33.94508
 2019-Jan-19 11:14  m  05 02 49.824023 +13 20 34.41489
 2019-Jan-19 11:15  m  05 02 49.827011 +13 20 34.88467
 2019-Jan-19 11:16  m  05 02 49.830009 +13 20 35.35443
 2019-Jan-19 11:17  m  05 02 49.833018 +13 20 35.82416
 2019-Jan-19 11:18  m  05 02 49.836036 +13 20 36.29387
 2019-Jan-19 11:19  m  05 02 49.839065 +13 20 36.76355
 2019-Jan-19 11:20  m  05 02 49.842104 +13 20 37.23321
 2019-Jan-19 11:21  m  05 02 49.845153 +13 20 37.70284
 2019-Jan-19 11:22  m  05 02 49.848212 +13 20 38.17245
 2019-Jan-19 11:23  m  05 02 49.851282 +13 20 38.64204
 2019-Jan-19 11:24  m  05 02 49.854362 +13 20 39.11160
 2019-Jan-19 11:25  m  05 02 49.857452 +13 20 39.58113
 2019-Jan-19 11:26  m  05 02 49.860553 +13 20 40.05065
 2019-Jan-19 11:27  m  05 02 49.863664 +13 20 40.52014
 2019-Jan-19 11:28  m  05 02 49.866785 +13 20 40.98960
 2019-Jan-19 11:29  m  05 02 49.869917 +13 20 41.45904
 2019-Jan-19 11:30  m  05 02 49.873059 +13 20 41.92846
 2019-Jan-19 11:31  m  05 02 49.876212 +13 20 42.39786
 2019-Jan-19 11:32  m  05 02 49.879375 +13 20 42.86723
 2019-Jan-19 11:33  m  05 02 49.882549 +13 20 43.33658
 2019-Jan-19 11:34  m  05 02 49.885733 +13 20 43.80591
 2019-Jan-19 11:35  m  05 02 49.888928 +13 20 44.27521
 2019-Jan-19 11:36  m  05 02 49.892133 +13 20 44.74450
 2019-Jan-19 11:37  m  05 02 49.895349 +13 20 45.21376
 2019-Jan-19 11:38  m  05 02 49.898576 +13 20 45.68299
 2019-Jan-19 11:39  m  05 02 49.901813 +13 20 46.15221
 2019-Jan-19 11:40  m  05 02 49.905061 +13 20 46.62140
 2019-Jan-19 11:41  m  05 02 49.908320 +13 20 47.09058
 2019-Jan-19 11:42  m  05 02 49.911589 +13 20 47.55973
 2019-Jan-19 11:43  m  05 02 49.914870 +13 20 48.02886
 2019-Jan-19 11:44  m  05 02 49.918161 +13 20 48.49797
 2019-Jan-19 11:45  m  05 02 49.921462 +13 20 48.96705
 2019-Jan-19 11:46  m  05 02 49.924775 +13 20 49.43612
 2019-Jan-19 11:47  m  05 02 49.928098 +13 20 49.90516
 2019-Jan-19 11:48  m  05 02 49.931432 +13 20 50.37419
 2019-Jan-19 11:49  m  05 02 49.934777 +13 20 50.84319
 2019-Jan-19 11:50  m  05 02 49.938133 +13 20 51.31218
 2019-Jan-19 11:51  m  05 02 49.941500 +13 20 51.78114
 2019-Jan-19 11:52  m  05 02 49.944878 +13 20 52.25008
 2019-Jan-19 11:53  m  05 02 49.948266 +13 20 52.71901
 2019-Jan-19 11:54  m  05 02 49.951666 +13 20 53.18791
 2019-Jan-19 11:55  m  05 02 49.955077 +13 20 53.65679
 2019-Jan-19 11:56  m  05 02 49.958498 +13 20 54.12566
 2019-Jan-19 11:57  m  05 02 49.961931 +13 20 54.59450
 2019-Jan-19 11:58  m  05 02 49.965375 +13 20 55.06333
 2019-Jan-19 11:59  m  05 02 49.968829 +13 20 55.53213
 2019-Jan-19 12:00  m  05 02 49.972295 +13 20 56.00092
 2019-Jan-19 12:01  m  05 02 49.975772 +13 20 56.46969
 2019-Jan-19 12:02  m  05 02 49.979260 +13 20 56.93844
 2019-Jan-19 12:03  m  05 02 49.982760 +13 20 57.40717
 2019-Jan-19 12:04  m  05 02 49.986270 +13 20 57.87588
 2019-Jan-19 12:05  m  05 02 49.989791 +13 20 58.34458
 2019-Jan-19 12:06  m  05 02 49.993324 +13 20 58.81326
 2019-Jan-19 12:07  m  05 02 49.996868 +13 20 59.28192
 2019-Jan-19 12:08  m  05 02 50.000423 +13 20 59.75056
 2019-Jan-19 12:09  m  05 02 50.003989 +13 21 00.21918
 2019-Jan-19 12:10  m  05 02 50.007567 +13 21 00.68779
 2019-Jan-19 12:11  m  05 02 50.011156 +13 21 01.15638
 2019-Jan-19 12:12  m  05 02 50.014756 +13 21 01.62495
 2019-Jan-19 12:13  m  05 02 50.018367 +13 21 02.09350
 2019-Jan-19 12:14  m  05 02 50.021990 +13 21 02.56204
 2019-Jan-19 12:15  m  05 02 50.025624 +13 21 03.03056
 2019-Jan-19 12:16  m  05 02 50.029270 +13 21 03.49906
 2019-Jan-19 12:17  m  05 02 50.032927 +13 21 03.96755
 2019-Jan-19 12:18  m  05 02 50.036595 +13 21 04.43603
 2019-Jan-19 12:19  m  05 02 50.040274 +13 21 04.90448
 2019-Jan-19 12:20  m  05 02 50.043965 +13 21 05.37292
 2019-Jan-19 12:21  m  05 02 50.047668 +13 21 05.84134
 2019-Jan-19 12:22  m  05 02 50.051382 +13 21 06.30975
 2019-Jan-19 12:23  m  05 02 50.055107 +13 21 06.77815
 2019-Jan-19 12:24  m  05 02 50.058844 +13 21 07.24652
 2019-Jan-19 12:25  m  05 02 50.062592 +13 21 07.71489
 2019-Jan-19 12:26  m  05 02 50.066351 +13 21 08.18323
